NORAD_CAT_ID,OBJECT_NAME,OBJECT_TYPE,EPOCH,MEAN_MOTION,ECCENTRICITY,INCLINATION,RA_OF_ASC_NODE,ARG_OF_PERICENTER,MEAN_ANOMALY,BSTAR,MEAN_MOTION_DOT,MEAN_MOTION_DDOT,TLE_LINE0,TLE_LINE1,TLE_LINE2,SEMIMAJOR_AXIS,PERIOD,APOGEE,PERIGEE,DECAYED
52094.0,STARLINK-3714,PAYLOAD,2024-01-03 11:18:41,15.08840062,0.000183,53.2181,63.4852,97.8311,262.2889,-8.8902e-05,-1.703e-05,0.0,0 STARLINK-3714,1 52094U 22029G   24003.47131160 -.00001703  00000-0 -88902-4 0  9991,2 52094  53.2181  63.4852 0001830  97.8311 262.2889 15.08840062100452,6917.88,95.438,541.011,538.479,0.0
52094.0,STARLINK-3714,PAYLOAD,2024-01-03 12:54:04,15.08846671,0.0001848,53.2181,63.1882,107.0419,253.0776,-0.00013477,-2.433e-05,0.0,0 STARLINK-3714,1 52094U 22029G   24003.53754820 -.00002433  00000-0 -13477-3 0  9997,2 52094  53.2181  63.1882 0001848 107.0419 253.0776 15.08846671100460,6917.86,95.437,541.003,538.447,0.0
52094.0,STARLINK-3714,PAYLOAD,2024-01-04 11:09:27,15.08844398,0.0001552,53.2178,59.0263,90.554,269.563,5.2423e-05,5.46e-06,0.0,0 STARLINK-3714,1 52094U 22029G   24004.46490489  .00000546  00000-0  52423-4 0  9994,2 52094  53.2178  59.0263 0001552  90.5540 269.5630 15.08844398100607,6917.867,95.437,540.806,538.658,0.0
52094.0,STARLINK-3714,PAYLOAD,2024-01-04 12:44:50,15.08849063,0.0001525,53.2183,58.7287,86.6038,273.5128,0.00013564,1.872e-05,0.0,0 STARLINK-3714,1 52094U 22029G   24004.53114030  .00001872  00000-0  13564-3 0  9992,2 52094  53.2183  58.7287 0001525  86.6038 273.5128 15.08849063100615,6917.853,95.437,540.773,538.663,0.0
52094.0,STARLINK-3714,PAYLOAD,2024-01-05 03:03:19,15.08838055,0.0001474,53.2181,56.0534,89.9301,270.186,3.543e-05,2.76e-06,0.0,0 STARLINK-3714,1 52094U 22029G   24005.12730991  .00000276  00000-0  35430-4 0  9992,2 52094  53.2181  56.0534 0001474  89.9301 270.1860 15.08838055100706,6917.886,95.438,540.771,538.732,0.0
52094.0,STARLINK-3714,PAYLOAD,2024-01-05 09:24:52,15.08839652,0.0001542,53.2179,54.8627,94.6019,265.515,4.19e-05,3.79e-06,0.0,0 STARLINK-3714,1 52094U 22029G   24005.39226897  .00000379  00000-0  41900-4 0  9999,2 52094  53.2179  54.8627 0001542  94.6019 265.5150 15.08839652100745,6917.881,95.438,540.813,538.68,0.0
52094.0,STARLINK-3714,PAYLOAD,2024-01-06 09:15:39,15.0883904,0.0001573,53.2177,50.4027,86.3335,273.7837,5.9025e-06,-1.94e-06,0.0,0 STARLINK-3714,1 52094U 22029G   24006.38587167 -.00000194  00000-0  59025-5 0  9993,2 52094  53.2177  50.4027 0001573  86.3335 273.7837 15.08839040100892,6917.883,95.438,540.837,538.66,0.0
52094.0,STARLINK-3714,PAYLOAD,2024-01-07 09:06:25,15.08843518,0.000157,53.2179,45.942,87.2172,272.9,7.1225e-05,8.46e-06,0.0,0 STARLINK-3714,1 52094U 22029G   24007.37946608  .00000846  00000-0  71225-4 0  9990,2 52094  53.2179  45.9420 0001570  87.2172 272.9000 15.08843518101042,6917.87,95.437,540.821,538.649,0.0
52094.0,STARLINK-3714,PAYLOAD,2024-01-07 23:24:54,15.08965329,0.000104,53.2186,43.271,90.2705,269.8407,-0.0015789,-0.00025414,0.0,0 STARLINK-3714,1 52094U 22029G   24007.97562773 -.00025414  00000-0 -15789-2 0  9994,2 52094  53.2186  43.2710 0001040  90.2705 269.8407 15.08965329101132,6917.497,95.43,540.082,538.643,0.0
52094.0,STARLINK-3714,PAYLOAD,2024-01-08 12:07:59,15.08841097,0.0001453,53.2177,40.8841,99.3191,260.7966,4.0011e-05,3.49e-06,0.0,0 STARLINK-3714,1 52094U 22029G   24008.50554830  .00000349  00000-0  40011-4 0  9995,2 52094  53.2177  40.8841 0001453  99.3191 260.7966 15.08841097101211,6917.877,95.437,540.747,538.737,0.0
52094.0,STARLINK-3714,PAYLOAD,2024-01-08 23:15:41,15.08835881,0.000159,53.2168,38.8,108.3854,251.7311,-3.1643e-06,-3.38e-06,0.0,0 STARLINK-3714,1 52094U 22029G   24008.96923337 -.00000338  00000-0 -31643-5 0  9999,2 52094  53.2168  38.8000 0001590 108.3854 251.7311 15.08835881101289,6917.893,95.438,540.858,538.658,0.0
52094.0,STARLINK-3714,PAYLOAD,2024-01-09 08:48:00,15.08840625,0.0001563,53.2171,37.0157,108.4317,251.6845,3.7819e-05,3.14e-06,0.0,0 STARLINK-3714,1 52094U 22029G   24009.36666955  .00000314  00000-0  37819-4 0  9996,2 52094  53.2171  37.0157 0001563 108.4317 251.6845 15.08840625101342,6917.878,95.438,540.825,538.662,0.0
52094.0,STARLINK-3714,PAYLOAD,2024-01-10 10:14:10,15.08838928,0.0001407,53.218,32.2625,91.6884,268.427,5.6702e-05,6.15e-06,0.0,0 STARLINK-3714,1 52094U 22029G   24010.42651324  .00000615  00000-0  56702-4 0  9995,2 52094  53.2180  32.2625 0001407  91.6884 268.4270 15.08838928101507,6917.884,95.438,540.722,538.775,0.0
52094.0,STARLINK-3714,PAYLOAD,2024-01-11 08:29:34,15.08843708,0.0001509,53.2187,28.1012,67.4128,292.7024,9.3423e-05,1.199e-05,0.0,0 STARLINK-3714,1 52094U 22029G   24011.35387220  .00001199  00000-0  93423-4 0  9998,2 52094  53.2187  28.1012 0001509  67.4128 292.7024 15.08843708101647,6917.869,95.437,540.778,538.69,0.0
52094.0,STARLINK-3714,PAYLOAD,2024-01-11 22:48:03,15.08838501,0.000145,53.218,25.4254,94.1933,265.9224,7.7898e-05,9.52e-06,0.0,0 STARLINK-3714,1 52094U 22029G   24011.95003526  .00000952  00000-0  77898-4 0  9992,2 52094  53.2180  25.4254 0001450  94.1933 265.9224 15.08838501101733,6917.885,95.438,540.753,538.747,0.0
52094.0,STARLINK-3714,PAYLOAD,2024-01-12 09:55:44,15.08838577,0.0001485,53.2179,23.3384,104.761,255.3546,7.7401e-05,9.44e-06,0.0,0 STARLINK-3714,1 52094U 22029G   24012.41371507  .00000944  00000-0  77401-4 0  9992,2 52094  53.2179  23.3384 0001485 104.7610 255.3546 15.08838577101801,6917.885,95.438,540.777,538.722,0.0
52094.0,STARLINK-3714,PAYLOAD,2024-01-13 00:14:13,15.08855114,0.0001379,53.2197,20.665,103.1179,256.9967,-0.00030143,-5.084e-05,0.0,0 STARLINK-3714,1 52094U 22029G   24013.00988061 -.00005084  00000-0 -30143-3 0  9990,2 52094  53.2197  20.6650 0001379 103.1179 256.9967 15.08855114101891,6917.834,95.437,540.653,538.745,0.0
52094.0,STARLINK-3714,PAYLOAD,2024-01-13 09:46:31,15.08848365,0.0001658,53.2183,18.8802,99.9143,260.2037,4.2184e-05,3.84e-06,0.0,0 STARLINK-3714,1 52094U 22029G   24013.40731189  .00000384  00000-0  42184-4 0  9996,2 52094  53.2183  18.8802 0001658  99.9143 260.2037 15.08848365101950,6917.855,95.437,540.867,538.573,0.0
52094.0,STARLINK-3714,PAYLOAD,2024-01-14 03:15:46,15.08835031,0.0002193,53.2186,15.6072,132.1465,227.9713,7.8117e-05,9.55e-06,0.0,0 STARLINK-3714,1 52094U 22029G   24014.13595778  .00000955  00000-0  78117-4 0  9998,2 52094  53.2186  15.6072 0002193 132.1465 227.9713 15.08835031102069,6917.896,95.438,541.278,538.243,0.0
52094.0,STARLINK-3714,PAYLOAD,2024-01-14 09:37:19,15.08839525,0.0001955,53.2192,14.4176,121.8337,238.2845,0.00010463,1.377e-05,0.0,0 STARLINK-3714,1 52094U 22029G   24014.40091481  .00001377  00000-0  10463-3 0  9998,2 52094  53.2192  14.4176 0001955 121.8337 238.2845 15.08839525102104,6917.882,95.438,541.099,538.394,0.0
52094.0,STARLINK-3714,PAYLOAD,2024-01-15 06:17:19,15.08842712,0.0001874,53.2183,10.553,119.6937,240.4242,7.7518e-05,9.46e-06,0.0,0 STARLINK-3714,1 52094U 22029G   24015.26203570  .00000946  00000-0  77518-4 0  9993,2 52094  53.2183  10.5530 0001874 119.6937 240.4242 15.08842712102238,6917.872,95.437,541.034,538.441,0.0
52094.0,STARLINK-3714,PAYLOAD,2024-01-16 09:18:53,15.08838672,0.0001637,53.2189,5.4986,110.5199,249.5969,-3.2939e-05,-8.12e-06,0.0,0 STARLINK-3714,1 52094U 22029G   24016.38812399 -.00000812  00000-0 -32939-4 0  9994,2 52094  53.2189   5.4986 0001637 110.5199 249.5969 15.08838672102404,6917.884,95.438,540.882,538.617,0.0
52094.0,STARLINK-3714,PAYLOAD,2024-01-17 05:58:54,15.08841433,0.0001647,53.2195,1.6325,100.556,259.5618,1.2261e-05,-9.3e-07,0.0,0 STARLINK-3714,1 52094U 22029G   24017.24924349 -.00000093  00000-0  12261-4 0  9995,2 52094  53.2195   1.6325 0001647 100.5560 259.5618 15.08841433102533,6917.876,95.437,540.88,538.602,0.0
52094.0,STARLINK-3714,PAYLOAD,2024-01-18 04:14:18,15.08849379,0.0001539,53.2178,357.4674,112.3764,247.7391,-9.9603e-05,-1.873e-05,0.0,0 STARLINK-3714,1 52094U 22029G   24018.17660524 -.00001873  00000-0 -99603-4 0  9993,2 52094  53.2178 357.4674 0001539 112.3764 247.7391 15.08849379102679,6917.852,95.437,540.781,538.652,0.0
52094.0,STARLINK-3714,PAYLOAD,2024-01-18 05:49:41,15.08841377,0.000148,53.2184,357.1682,99.7637,260.3523,5.6277e-05,6.08e-06,0.0,0 STARLINK-3714,1 52094U 22029G   24018.24284417  .00000608  00000-0  56277-4 0  9997,2 52094  53.2184 357.1682 0001480  99.7637 260.3523 15.08841377102683,6917.876,95.437,540.765,538.717,0.0
52094.0,STARLINK-3714,PAYLOAD,2024-01-18 21:43:33,15.08835971,0.0001716,53.2195,354.2024,100.7259,259.3926,7.8696e-05,9.64e-06,0.0,0 STARLINK-3714,1 52094U 22029G   24018.90525072  .00000964  00000-0  78696-4 0  9999,2 52094  53.2195 354.2024 0001716 100.7259 259.3926 15.08835971102787,6917.893,95.438,540.945,538.571,0.0
52094.0,STARLINK-3714,PAYLOAD,2024-01-19 07:15:51,15.08853997,0.0001464,53.2178,352.4142,111.1407,248.9741,0.00014924,2.089e-05,0.0,0 STARLINK-3714,1 52094U 22029G   24019.30267423  .00002089  00000-0  14924-3 0  9990,2 52094  53.2178 352.4142 0001464 111.1407 248.9741 15.08853997102844,6917.838,95.437,540.715,538.69,0.0
52094.0,STARLINK-3714,PAYLOAD,2024-01-19 21:34:20,15.08840827,0.000157,53.2175,349.7394,91.931,268.1862,4.1979e-05,3.8e-06,0.0,0 STARLINK-3714,1 52094U 22029G   24019.89884740  .00000380  00000-0  41979-4 0  9994,2 52094  53.2175 349.7394 0001570  91.9310 268.1862 15.08840827102931,6917.878,95.438,540.829,538.657,0.0
52094.0,STARLINK-3714,PAYLOAD,2024-01-20 03:55:52,15.08842715,0.0001447,53.2176,348.5495,101.8419,258.2735,5.8015e-05,6.36e-06,0.0,0 STARLINK-3714,1 52094U 22029G   24020.16380474  .00000636  00000-0  58015-4 0  9994,2 52094  53.2176 348.5495 0001447 101.8419 258.2735 15.08842715102976,6917.872,95.437,540.738,538.736,0.0
52094.0,STARLINK-3714,PAYLOAD,2024-01-20 05:31:15,15.0884566,0.0001518,53.2182,348.2522,83.8294,276.2871,7.1774e-05,8.55e-06,0.0,0 STARLINK-3714,1 52094U 22029G   24020.23004362  .00000855  00000-0  71774-4 0  9991,2 52094  53.2182 348.2522 0001518  83.8294 276.2871 15.08845660102984,6917.863,95.437,540.778,538.678,0.0
